2026-083D
1 68756U 26083D   26107.09483569  .00000524  00000+0  38927-4 0  9994
2 68756  96.9492 252.3415 0010587 265.4967  94.5052 15.06598489    16
